[{"OBJECT_NAME":"STARLINK-33915","OBJECT_ID":"2025-087M","EPOCH":"2026-03-09T17:16:17.138784","MEAN_MOTION":15.30182486,"ECCENTRICITY":8.876e-5,"INCLINATION":53.1572,"RA_OF_ASC_NODE":219.4555,"ARG_OF_PERICENTER":83.3484,"MEAN_ANOMALY":276.7618,"EPHEMERIS_TYPE":0,"CLASSIFICATION_TYPE":"U","NORAD_CAT_ID":63708,"ELEMENT_SET_NO":999,"REV_AT_EPOCH":4920,"BSTAR":0.00090408464,"MEAN_MOTION_DOT":0.00026498,"MEAN_MOTION_DDOT":0},{"OBJECT_NAME":"SPACEMOBILE-001 DEB","OBJECT_ID":"2024-163F","EPOCH":"2026-03-09T07:17:56.452704","MEAN_MOTION":15.32884299,"ECCENTRICITY":0.00071876,"INCLINATION":52.9956,"RA_OF_ASC_NODE":27.518,"ARG_OF_PERICENTER":196.7865,"MEAN_ANOMALY":163.2898,"EPHEMERIS_TYPE":0,"CLASSIFICATION_TYPE":"U","NORAD_CAT_ID":62369,"ELEMENT_SET_NO":999,"REV_AT_EPOCH":7117,"BSTAR":0.00044817004,"MEAN_MOTION_DOT":0.00014099,"MEAN_MOTION_DDOT":0}]
